"","program","program_link","station_name","mea_contribution","address","city","state","zipcode","location","available_to_the_public","lat","long"
"1","Electric Vehicle Charging Stations","http://www.afdc.energy.gov/locator/stations/","King Farm Village - Regency",NA,"800 Pleasant Dr","Rockville","MD",20850,"800 Pleasant Dr
Rockville, Maryland 20850
(39.11373596600049, -77.17123692299964)","Public","39.11373596600049"," -77.17123692299964"
"2","Electric Vehicle Infrastructure Program (EVIP)","http://energy.maryland.gov/Transportation/electric.html","Community College of Baltimore County (CCBC)",12796.3,"800 S Rolling","Catonsville","MD",21228,"800 S Rolling
Catonsville, Maryland 21228
(39.256481935000465, -76.73002548599965)","Public","39.256481935000465"," -76.73002548599965"
"3","Electric Vehicle Charging Stations","http://www.afdc.energy.gov/locator/stations/","Harper's Choice Village Center",NA,"5440 Old Tucker Row","Columbia","MD",21044,"5440 Old Tucker Row
Columbia, Maryland 21044
(39.222329423000474, -76.88737999999967)","Public","39.222329423000474"," -76.88737999999967"
"4","Electric Vehicle Infrastructure Program (EVIP)","http://energy.maryland.gov/Transportation/electric.html","West Street Garage",14929.56,"40 E West St","Baltimore","MD",21230,"40 E West St
Baltimore, Maryland 21230
(39.27590769200049, -76.61318340799966)","Public","39.27590769200049"," -76.61318340799966"
"5","E-85 Refueling Stations","http://energy.maryland.gov/Transportation/e85Refueling.html","Texaco",NA,"6400 New Hampshire Ave","Takoma Park","MD",20912,"6400 New Hampshire Ave
Takoma Park, Maryland 20912
(38.967215885000485, -77.00150465599967)","Public","38.967215885000485"," -77.00150465599967"
"6","Electric Vehicle Charging Stations","http://www.afdc.energy.gov/locator/stations/","Win Kelly Dealership",NA,"12421 Auto Dr","Clarksville","MD",21029,"12421 Auto Dr
Clarksville, Maryland 21029
(39.21058276700046, -76.94179073399965)","Public","39.21058276700046"," -76.94179073399965"
"7","Residential Electric Vehicle Supply Equipment Tax Credit Program","http://energy.maryland.gov/Transportation/evse/","",199.8,"","Silver Spring","MD",20903,"
Silver Spring, Maryland 20903
(39.010853505000455, -76.98247973299965)","","39.010853505000455"," -76.98247973299965"
"8","Electric Vehicle Charging Stations","http://www.afdc.energy.gov/locator/stations/","eVgo - FedEx Field Convenience Station",NA,"1600 FedEx Way","Landover","MD",20785,"1600 FedEx Way
Landover, Maryland 20785
(38.909088486000485, -76.86362613099965)","Public","38.909088486000485"," -76.86362613099965"
"9","Residential Electric Vehicle Supply Equipment Tax Credit Program","http://energy.maryland.gov/Transportation/evse/","",144.22,"","Reisterstown","MD",21136,"
Reisterstown, Maryland 21136
(39.46183031600049, -76.81510577599965)","","39.46183031600049"," -76.81510577599965"
"10","Electric Vehicle Charging Stations","http://www.afdc.energy.gov/locator/stations/","University of Maryland - College Park - Turner Hall Visitor Center",NA,"1201 Turner Hall","College Park","MD",20742,"1201 Turner Hall
College Park, Maryland 20742
(38.985862116000476, -76.93695694999963)","Public","38.985862116000476"," -76.93695694999963"
"11","Electric Vehicle Charging Stations","http://www.afdc.energy.gov/locator/stations/","Walgreens",NA,"6300 Crain Hwy","La Plata","MD",21646,"6300 Crain Hwy
La Plata, Maryland 21646
(38.53867551500048, -76.98388583399964)","Public","38.53867551500048"," -76.98388583399964"
"12","Residential Electric Vehicle Supply Equipment Tax Credit Program","http://energy.maryland.gov/Transportation/evse/","",169.8,"","Olney","MD",20832,"
Olney, Maryland 20832
(39.15280049000046, -77.07121777999964)","","39.15280049000046"," -77.07121777999964"
"13","Electric Vehicle Charging Stations","http://www.afdc.energy.gov/locator/stations/","MedImmune Ventures - Visitor's Parking Lot",NA,"1 Medimmune Way","Gaithersburg","MD",20878,"1 Medimmune Way
Gaithersburg, Maryland 20878
(39.12622556500048, -77.23168563299964)","Public","39.12622556500048"," -77.23168563299964"
"14","Electric Vehicle Charging Stations","http://www.afdc.energy.gov/locator/stations/","Walgreens",NA,"8050 Liberty Rd","Baltimore","MD",21244,"8050 Liberty Rd
Baltimore, Maryland 21244
(39.353543216000446, -76.75761042799968)","Public","39.353543216000446"," -76.75761042799968"
"15","Electric Vehicle Charging Stations","http://www.afdc.energy.gov/locator/stations/","Walgreens",NA,"1927 Emmorton Rd","Bel Air","MD",21015,"1927 Emmorton Rd
Bel Air, Maryland 21015
(39.503913147000446, -76.32736882099965)","Public","39.503913147000446"," -76.32736882099965"
"16","Electric Vehicle Charging Stations","http://www.afdc.energy.gov/locator/stations/","Baltimore County Revenue Authority - Tolbert Garage",NA,"108 Ware Ave","Towson","MD",21204,"108 Ware Ave
Towson, Maryland 21204
(39.40321750700048, -76.60513297699964)","Public","39.40321750700048"," -76.60513297699964"
"17","Electric Vehicle Charging Stations","http://www.afdc.energy.gov/locator/stations/","Veterans Affairs Maryland Health Care",NA,"10 N Greene St","Baltimore","MD",21201,"10 N Greene St
Baltimore, Maryland 21201
(39.289758178000454, -76.62374597199965)","Public","39.289758178000454"," -76.62374597199965"
"18","Electric Vehicle Charging Stations","http://www.afdc.energy.gov/locator/stations/","City of Towson - Glen Garage",NA,"Cross Campus Dr","Towson","MD",21252,"Cross Campus Dr
Towson, Maryland 21252
(39.39000400500049, -76.60532598299966)","Public","39.39000400500049"," -76.60532598299966"
"19","Electric Vehicle Charging Stations","http://www.afdc.energy.gov/locator/stations/","Chevy Chase Nissan",NA,"7701 Wisconsin Ave","Bethesda","MD",20814,"7701 Wisconsin Ave
Bethesda, Maryland 20814
(38.986908206000464, -77.09473709399964)","Public","38.986908206000464"," -77.09473709399964"
"20","Residential Electric Vehicle Supply Equipment Tax Credit Program","http://energy.maryland.gov/Transportation/evse/","",169.8,"","Frederick","MD",21704,"
Frederick, Maryland 21704
(39.36091321800046, -77.38237665899965)","","39.36091321800046"," -77.38237665899965"
"21","Residential Electric Vehicle Supply Equipment Tax Credit Program","http://energy.maryland.gov/Transportation/evse/","",259.8,"","Chevy Chase","MD",20815,"
Chevy Chase, Maryland 20815
(38.977953123000475, -77.08250610499965)","","38.977953123000475"," -77.08250610499965"
"22","E-85 Refueling Stations","http://energy.maryland.gov/Transportation/e85Refueling.html","North Potomac Sunoco",NA,"10010 Darnestown Road","Rockville","MD",20878,"10010 Darnestown Road
Rockville, Maryland 20878
(39.096823782000456, -77.20604435099966)","Public","39.096823782000456"," -77.20604435099966"
"23","Electric Vehicle Charging Stations","http://www.afdc.energy.gov/locator/stations/","University of Maryland - University Plaza Garage",NA,"500 W Redwood St","Baltimore","MD",21201,"500 W Redwood St
Baltimore, Maryland 21201
(39.28861134800047, -76.62235103699965)","Public","39.28861134800047"," -76.62235103699965"
"24","Electric Vehicle Charging Stations","http://www.afdc.energy.gov/locator/stations/","City of Towson - Administrative Building",NA,"7764-7788 MD 45","Towson","MD",21204,"7764-7788 MD 45
Towson, Maryland 21204
(39.38389278800048, -76.60700878199964)","Public","39.38389278800048"," -76.60700878199964"
"25","Residential Electric Vehicle Supply Equipment Tax Credit Program","http://energy.maryland.gov/Transportation/evse/","",199.99,"","Ellicott City","MD",21043,"
Ellicott City, Maryland 21043
(39.259561620000454, -76.80313963099968)","","39.259561620000454"," -76.80313963099968"
"26","E-85 Refueling Stations","http://energy.maryland.gov/Transportation/e85Refueling.html","Sunoco",NA,"1469 Rockville Pike","Rockville","MD",20852,"1469 Rockville Pike
Rockville, Maryland 20852
(39.06585976300045, -77.12746469899963)","Public","39.06585976300045"," -77.12746469899963"
"27","Electric Vehicle Charging Stations","http://www.afdc.energy.gov/locator/stations/","Spinnaker Garage",NA,"707 President St","Baltimore","MD",21202,"707 President St
Baltimore, Maryland 21202
(39.28289226600049, -76.60136411399964)","Public","39.28289226600049"," -76.60136411399964"
"28","Electric Vehicle Supply Equipment Tax Credit Program","http://energy.maryland.gov/Transportation/evse/index.html","Gate APG Lot D1",800,"6180 Guardian Gateway","Aberdeen","MD",21005,"6180 Guardian Gateway
Aberdeen, Maryland 21005
(39.48619555300047, -76.15627104899966)","Public","39.48619555300047"," -76.15627104899966"
"29","Electric Vehicle Infrastructure Program (EVIP)","http://energy.maryland.gov/Transportation/electric.html","MDOT MTA at BWI MARC Station",31990.75,"Amtrak Way","Linthicum Heights","MD",21090,"Amtrak Way
Linthicum Heights, Maryland 21090
(39.2093941870005, -76.65996735499965)","Public","39.2093941870005"," -76.65996735499965"
"30","Electric Vehicle Charging Stations","http://www.afdc.energy.gov/locator/stations/","SemaConnect United States Headquarters",NA,"4961 Telsa Dr","Bowie","MD",20715,"4961 Telsa Dr
Bowie, Maryland 20715
(38.956984590000445, -76.70776960599966)","Public","38.956984590000445"," -76.70776960599966"
"31","E-85 Refueling Stations","http://energy.maryland.gov/Transportation/e85Refueling.html","University of Maryland",NA,"Motor Transportation Services, Bld 011","College Park","MD",20740,"Motor Transportation Services, Bld 011
College Park, Maryland 20740
(38.9967235470005, -76.92870594499965)","Private","38.9967235470005"," -76.92870594499965"
"32","Electric Vehicle Charging Stations","http://www.afdc.energy.gov/locator/stations/","Tischer Nissan",NA,"3510 Ft Meade Rd","Laurel","MD",20724,"3510 Ft Meade Rd
Laurel, Maryland 20724
(39.10104704000048, -76.82164279899968)","Public","39.10104704000048"," -76.82164279899968"
"33","Electric Vehicle Supply Equipment Tax Credit Program","http://energy.maryland.gov/Transportation/evse/index.html","Windsor Corporate Center 5C, LLC",400,"2560 Lord Baltimore Drive","Baltimore","MD",21244,"2560 Lord Baltimore Drive
Baltimore, Maryland 21244
(39.325725143000454, -76.75097998499967)","Public","39.325725143000454"," -76.75097998499967"
"34","E-85 Refueling Stations","http://energy.maryland.gov/Transportation/e85Refueling.html","W Express",NA,"10003 Fields Road","Gaithersburg","MD",20878,"10003 Fields Road
Gaithersburg, Maryland 20878
(39.116263940000465, -77.20526218499964)","Public","39.116263940000465"," -77.20526218499964"
"35","Electric Vehicle Charging Stations","http://www.afdc.energy.gov/locator/stations/","MOM's Organic Market",NA,"5566 Randolph Rd","Rockville","MD",20852,"5566 Randolph Rd
Rockville, Maryland 20852
(39.05328797700048, -77.11184382199963)","Public","39.05328797700048"," -77.11184382199963"
"36","Electric Vehicle Charging Stations","http://www.afdc.energy.gov/locator/stations/","The Residences at?Arundel Preserve",NA,"7789 Arundel Mills Blvd","Hanover","MD",21076,"7789 Arundel Mills Blvd
Hanover, Maryland 21076
(39.15372458800044, -76.74284767499967)","Public","39.15372458800044"," -76.74284767499967"
"37","Electric Vehicle Charging Stations","http://www.afdc.energy.gov/locator/stations/","MOM's Organic Market - Timonium",NA,"20 W Ridgley Rd","Lutherville-Timonium","MD",21093,"20 W Ridgley Rd
Lutherville-Timonium, Maryland 21093
(39.43007422700049, -76.62171062299967)","Public","39.43007422700049"," -76.62171062299967"
"38","Electric Vehicle Charging Stations","http://www.afdc.energy.gov/locator/stations/","Walgreens",NA,"1260 Liberty Rd","Eldersburg","MD",21784,"1260 Liberty Rd
Eldersburg, Maryland 21784
(39.404317824000486, -76.95140340199964)","Public","39.404317824000486"," -76.95140340199964"
"39","E-85 Refueling Stations","http://energy.maryland.gov/Transportation/e85Refueling.html","W Express",NA,"100 North Frederick Ave","Gaithersburg","MD",20877,"100 North Frederick Ave
Gaithersburg, Maryland 20877
(39.142679383000484, -77.20022297799966)","Public","39.142679383000484"," -77.20022297799966"
"40","Electric Vehicle Infrastructure Program (EVIP)","http://energy.maryland.gov/Transportation/electric.html","Maple Lawn",1200,"8160 Maple Law Blvd.,","Fulton","MD",20759,"8160 Maple Law Blvd.,
Fulton, Maryland 20759
(39.15392150100047, -76.92817585399968)","Public","39.15392150100047"," -76.92817585399968"
"41","Electric Vehicle Infrastructure Program (EVIP)","http://energy.maryland.gov/Transportation/electric.html","Water Street Garage",14929.56,"414 Water St","Baltimore","MD",21202,"414 Water St
Baltimore, Maryland 21202
(39.28864838600049, -76.60922155799966)","Public","39.28864838600049"," -76.60922155799966"
"42","Electric Vehicle Charging Stations","http://www.afdc.energy.gov/locator/stations/","Len Stoler Nissan",NA,"11405 Reisterstown Rd","Owings Mills","MD",21117,"11405 Reisterstown Rd
Owings Mills, Maryland 21117
(39.43870671600047, -76.80374368399964)","Public","39.43870671600047"," -76.80374368399964"
"43","Electric Vehicle Charging Stations","http://www.afdc.energy.gov/locator/stations/","Baltimore County Revenue Authority - Chesapeake Ave Garage",NA,"115 Towsontown Blvd W","Towson","MD",21204,"115 Towsontown Blvd W
Towson, Maryland 21204
(39.40203000500048, -76.61713863499966)","Public","39.40203000500048"," -76.61713863499966"
"44","Electric Vehicle Infrastructure Program (EVIP)","http://energy.maryland.gov/Transportation/electric.html","Charles County Hilton",12796.3,"10385 O'Donnell Pl","Waldorf","MD",20601,"10385 O'Donnell Pl
Waldorf, Maryland 20601
(38.61876532700046, -76.93259640299965)","Public","38.61876532700046"," -76.93259640299965"
"45","Residential Electric Vehicle Supply Equipment Tax Credit Program","http://energy.maryland.gov/Transportation/evse/","",178,"","Columbia","MD",21045,"
Columbia, Maryland 21045
(39.205861697000444, -76.82756725299964)","","39.205861697000444"," -76.82756725299964"
"46","Electric Vehicle Infrastructure Program (EVIP)","http://energy.maryland.gov/Transportation/electric.html","University of Maryland - College Park - Regents Dr",31990.75,"Regents Dr","College Park","MD",20740,"Regents Dr
College Park, Maryland 20740
(38.982151102000444, -76.93798877099965)","Public","38.982151102000444"," -76.93798877099965"
"47","Electric Vehicle Infrastructure Program (EVIP)","http://energy.maryland.gov/Transportation/electric.html","Baltimore Street Garage",12796.3,"15 Guilford Ave","Baltimore","MD",21202,"15 Guilford Ave
Baltimore, Maryland 21202
(39.290044804000445, -76.61097566899963)","Public","39.290044804000445"," -76.61097566899963"
"48","Electric Vehicle Charging Stations","http://www.afdc.energy.gov/locator/stations/","University of Maryland-College Park - Lot U4",NA,"4116-4138 Mowatt Ln","College Park","MD",20740,"4116-4138 Mowatt Ln
College Park, Maryland 20740
(38.981291988000464, -76.94484839099965)","Public","38.981291988000464"," -76.94484839099965"
"49","Electric Vehicle Charging Stations","http://www.afdc.energy.gov/locator/stations/","Norris Nissan West",NA,"8569 Baltimore National Pike","Ellicott City","MD",21043,"8569 Baltimore National Pike
Ellicott City, Maryland 21043
(39.28332564900046, -76.80905632299965)","Public","39.28332564900046"," -76.80905632299965"
"50","Electric Vehicle Charging Stations","http://www.afdc.energy.gov/locator/stations/","Towne Place Suites",NA,"5050 Westview Dr","Frederick","MD",21703,"5050 Westview Dr
Frederick, Maryland 21703
(39.37698002700046, -77.41334848499963)","Public","39.37698002700046"," -77.41334848499963"
"51","Residential Electric Vehicle Supply Equipment Tax Credit Program","http://energy.maryland.gov/Transportation/evse/","",169.8,"","Potomac","MD",20854,"
Potomac, Maryland 20854
(39.03906128100044, -77.19744887999963)","","39.03906128100044"," -77.19744887999963"
"52","Electric Vehicle Infrastructure Program (EVIP)","http://energy.maryland.gov/Transportation/electric.html","Dorsey Building - Howard County",31990.75,"9250 Bendix Rd","Columbia","MD",21045,"9250 Bendix Rd
Columbia, Maryland 21045
(39.235382880000486, -76.82946021699968)","Public","39.235382880000486"," -76.82946021699968"
"53","Electric Vehicle Charging Stations","http://www.afdc.energy.gov/locator/stations/","The Alaire",NA,"1011 Higgins Pl","Rockville","MD",20852,"1011 Higgins Pl
Rockville, Maryland 20852
(39.04877236800047, -77.11997743299963)","Public","39.04877236800047"," -77.11997743299963"
"54","Electric Vehicle Charging Stations","http://www.afdc.energy.gov/locator/stations/","Patuxent Woods",NA,"9755 Patuxent Woods Dr","Columbia","MD",21046,"9755 Patuxent Woods Dr
Columbia, Maryland 21046
(39.17670154700045, -76.85228490299966)","Public","39.17670154700045"," -76.85228490299966"
"55","Electric Vehicle Supply Equipment Tax Credit Program","http://energy.maryland.gov/Transportation/evse/index.html","President Street Garage",400,"815 E Pratt St","Baltimore","MD",21202,"815 E Pratt St
Baltimore, Maryland 21202
(39.28720340600046, -76.60342150499963)","Public","39.28720340600046"," -76.60342150499963"
"56","Residential Electric Vehicle Supply Equipment Tax Credit Program","http://energy.maryland.gov/Transportation/evse/","",169.8,"","Lutherville","MD",21093,"
Lutherville, Maryland 21093
(39.44222130600048, -76.63706917599967)","","39.44222130600048"," -76.63706917599967"
"57","Residential Electric Vehicle Supply Equipment Tax Credit Program","http://energy.maryland.gov/Transportation/evse/","",190.5,"","Catonsville","MD",21228,"
Catonsville, Maryland 21228
(39.27721103300047, -76.73836863399964)","","39.27721103300047"," -76.73836863399964"
"58","Electric Vehicle Charging Stations","http://www.afdc.energy.gov/locator/stations/","Walgreens",NA,"2016 Rock Spring Rd","Forest Hill","MD",21050,"2016 Rock Spring Rd
Forest Hill, Maryland 21050
(39.57351902000045, -76.38543329299966)","Public","39.57351902000045"," -76.38543329299966"
"59","Electric Vehicle Charging Stations","http://www.afdc.energy.gov/locator/stations/","Walgreens",NA,"1201 E Churchville Rd","Bel Air","MD",21014,"1201 E Churchville Rd
Bel Air, Maryland 21014
(39.543185107000454, -76.32693767399968)","Public","39.543185107000454"," -76.32693767399968"
"60","Electric Vehicle Charging Stations","http://www.afdc.energy.gov/locator/stations/","Clinton Electric",NA,"1830 York Rd","Lutherville","MD",21093,"1830 York Rd
Lutherville, Maryland 21093
(39.43268680100044, -76.62269066399966)","Public","39.43268680100044"," -76.62269066399966"
"61","Electric Vehicle Charging Stations","http://www.afdc.energy.gov/locator/stations/","Hawkins Electric",NA,"8001 Sheriff Rd","Landover","MD",20785,"8001 Sheriff Rd
Landover, Maryland 20785
(38.91351720500046, -76.86781525799967)","Public","38.91351720500046"," -76.86781525799967"
"62","Residential Electric Vehicle Supply Equipment Tax Credit Program","http://energy.maryland.gov/Transportation/evse/","",169.8,"","Rockville","MD",20852,"
Rockville, Maryland 20852
(39.04877236800047, -77.11997743299963)","","39.04877236800047"," -77.11997743299963"
"63","Electric Vehicle Charging Stations","http://www.afdc.energy.gov/locator/stations/","Walgreens",NA,"5657 Baltimore National Pike","Catonsville","MD",21228,"5657 Baltimore National Pike
Catonsville, Maryland 21228
(39.28875050400046, -76.72823641899964)","Public","39.28875050400046"," -76.72823641899964"
"64","Residential Electric Vehicle Supply Equipment Tax Credit Program","http://energy.maryland.gov/Transportation/evse/","",98,"","Nottingham","MD",21236,"
Nottingham, Maryland 21236
(39.38927306900047, -76.48624968999968)","","39.38927306900047"," -76.48624968999968"
"65","Residential Electric Vehicle Supply Equipment Tax Credit Program","http://energy.maryland.gov/Transportation/evse/","",240,"","Bethesda","MD",20816,"
Bethesda, Maryland 20816
(38.95808341300045, -77.11365979399966)","","38.95808341300045"," -77.11365979399966"
"66","Electric Vehicle Charging Stations","http://www.afdc.energy.gov/locator/stations/","LifeBridge Health - Cylburn Garage",NA,"2401 W Belvedere Ave","Baltimore","MD",21215,"2401 W Belvedere Ave
Baltimore, Maryland 21215
(39.35468514100046, -76.66225112699965)","Public","39.35468514100046"," -76.66225112699965"
"67","Electric Vehicle Charging Stations","http://www.afdc.energy.gov/locator/stations/","Walgreens",NA,"2204 Rolling Rd","Baltimore","MD",21244,"2204 Rolling Rd
Baltimore, Maryland 21244
(39.32022592900046, -76.75815987599964)","Public","39.32022592900046"," -76.75815987599964"
"68","Electric Vehicle Charging Stations","http://www.afdc.energy.gov/locator/stations/","Carmax Nissan - White Marsh",NA,"10201 Philadelphia Rd","White Marsh","MD",21162,"10201 Philadelphia Rd
White Marsh, Maryland 21162
(39.3697381450005, -76.44686839999963)","Public","39.3697381450005"," -76.44686839999963"
"69","Electric Vehicle Charging Stations","http://www.afdc.energy.gov/locator/stations/","Walgreens",NA,"585 Marketplace Dr","Bel Air","MD",21014,"585 Marketplace Dr
Bel Air, Maryland 21014
(39.52436606500049, -76.34974998099966)","Public","39.52436606500049"," -76.34974998099966"
"70","Electric Vehicle Charging Stations","http://www.afdc.energy.gov/locator/stations/","Antwerpen Nissan - Clarksville",NA,"12451 Auto Dr","Clarksville","MD",21029,"12451 Auto Dr
Clarksville, Maryland 21029
(39.211686580000446, -76.94361843699966)","Public","39.211686580000446"," -76.94361843699966"
"71","Electric Vehicle Charging Stations","http://www.afdc.energy.gov/locator/stations/","Herb Gordon Nissan",NA,"3131 Automobile Blvd","Silver Spring","MD",20904,"3131 Automobile Blvd
Silver Spring, Maryland 20904
(39.07772899000048, -76.94798380399965)","Public","39.07772899000048"," -76.94798380399965"
"72","E-85 Refueling Stations","http://www.afdc.energy.gov/locator/stations/","Navy Exchange - Annapolis",NA,"321 Kinkaid Rd","Annapolis","MD",21402,"321 Kinkaid Rd
Annapolis, Maryland 21402
(38.99420557400049, -76.47024058999966)","Private","38.99420557400049"," -76.47024058999966"
"73","Electric Vehicle Charging Stations","http://www.afdc.energy.gov/locator/stations/","University of Maryland-College Park - Stadium Garage",NA,"Stadium Dr","College Park","MD",20740,"Stadium Dr
College Park, Maryland 20740
(38.99016211100047, -76.93725808199963)","Public","38.99016211100047"," -76.93725808199963"
"74","Residential Electric Vehicle Supply Equipment Tax Credit Program","http://energy.maryland.gov/Transportation/evse/","",144.22,"","Severn","MD",21144,"
Severn, Maryland 21144
(39.126261196000485, -76.69088641399964)","","39.126261196000485"," -76.69088641399964"
"75","Electric Vehicle Charging Stations","http://www.afdc.energy.gov/locator/stations/","Municipal Garage",NA,"200 N Holliday St","Baltimore","MD",21202,"200 N Holliday St
Baltimore, Maryland 21202
(39.29167810500047, -76.61029581699967)","Public","39.29167810500047"," -76.61029581699967"
"76","Residential Electric Vehicle Supply Equipment Tax Credit Program","http://energy.maryland.gov/Transportation/evse/","",159.8,"","Boyds","MD",20841,"
Boyds, Maryland 20841
(39.188360015000455, -77.32613925299967)","","39.188360015000455"," -77.32613925299967"
"77","Electric Vehicle Infrastructure Program (EVIP)","http://energy.maryland.gov/Transportation/electric.html","BWI Daily Garage with solar array",12796.3,"7062 Elm Road","Linthicum Heights","MD",21240,"7062 Elm Road
Linthicum Heights, Maryland 21240
(39.18851128500046, -76.67579522499966)","Public","39.18851128500046"," -76.67579522499966"
"78","Electric Vehicle Charging Stations","http://www.afdc.energy.gov/locator/stations/","Mona Electric Group",NA,"7915 Malcolm Rd","Clinton","MD",20735,"7915 Malcolm Rd
Clinton, Maryland 20735
(38.78076103800049, -76.88933665299965)","Public","38.78076103800049"," -76.88933665299965"
"79","Electric Vehicle Infrastructure Program (EVIP)","http://energy.maryland.gov/Transportation/electric.html","Nexus Energy Homes",12796.3,"1000 Island Professional Park","Chester","MD",21666,"1000 Island Professional Park
Chester, Maryland 21666
(38.97720645300046, -76.29103395699963)","Public","38.97720645300046"," -76.29103395699963"
"80","Electric Vehicle Charging Stations","http://www.afdc.energy.gov/locator/stations/","Frederick Nissan",NA,"7418 Grove Rd","Frederick","MD",21704,"7418 Grove Rd
Frederick, Maryland 21704
(39.39065802800047, -77.40787721599963)","Public","39.39065802800047"," -77.40787721599963"
"81","Electric Vehicle Charging Stations","http://www.afdc.energy.gov/locator/stations/","Walgreens",NA,"6301 York Rd","Baltimore","MD",21212,"6301 York Rd
Baltimore, Maryland 21212
(39.37139005400047, -76.60978533699966)","Public","39.37139005400047"," -76.60978533699966"
"82","Electric Vehicle Charging Stations","http://www.afdc.energy.gov/locator/stations/","University of Maryland Medical Center - Paca Pratt",NA,"110 S Paca St","Baltimore","MD",21201,"110 S Paca St
Baltimore, Maryland 21201
(39.28658869800046, -76.62211622499967)","Public","39.28658869800046"," -76.62211622499967"
"83","Electric Vehicle Infrastructure Program (EVIP)","http://energy.maryland.gov/Transportation/electric.html","Harbor East - Whole Foods Market",12796.3,"604 S Exeter St","Baltimore","MD",21202,"604 S Exeter St
Baltimore, Maryland 21202
(39.28411465300047, -76.60030068199967)","Public","39.28411465300047"," -76.60030068199967"
"84","Electric Vehicle Charging Stations","http://www.afdc.energy.gov/locator/stations/","JBG - Woodglen Drive",NA,"11351 Woodglen Dr","Rockville","MD",20852,"11351 Woodglen Dr
Rockville, Maryland 20852
(39.04255307000045, -77.11329419599963)","Public","39.04255307000045"," -77.11329419599963"
"85","Electric Vehicle Charging Stations","http://www.afdc.energy.gov/locator/stations/","The Fitzgerald Parking Garage",NA,"80 W Oliver St","Baltimore","MD",21217,"80 W Oliver St
Baltimore, Maryland 21217
(39.30654836700046, -76.61877263699967)","Public","39.30654836700046"," -76.61877263699967"
"86","Electric Vehicle Charging Stations","http://www.afdc.energy.gov/locator/stations/","Bel Air Nissan",NA,"1506 Bel Air Rd","Bel Air","MD",21014,"1506 Bel Air Rd
Bel Air, Maryland 21014
(39.50443879800048, -76.38197900299963)","Public","39.50443879800048"," -76.38197900299963"
"87","Electric Vehicle Charging Stations","http://www.afdc.energy.gov/locator/stations/","Charles County Public Library - Potomac Branch",NA,"3225 Ruth B Swann Dr","Indian Head","MD",20640,"3225 Ruth B Swann Dr
Indian Head, Maryland 20640
(38.623210378000465, -77.08624250799966)","Public","38.623210378000465"," -77.08624250799966"
"88","Electric Vehicle Charging Stations","http://www.afdc.energy.gov/locator/stations/","Walgreens",NA,"3801 Liberty Heights Ave","Baltimore","MD",21215,"3801 Liberty Heights Ave
Baltimore, Maryland 21215
(39.327213945000494, -76.68200944799963)","Public","39.327213945000494"," -76.68200944799963"
"89","Electric Vehicle Supply Equipment Tax Credit Program","http://energy.maryland.gov/Transportation/evse/index.html","Sheehy Auto Store",557,"2950 Crain Highway","Waldorf","MD",20601,"2950 Crain Highway
Waldorf, Maryland 20601
(38.63048704500045, -76.90618222999967)","Public","38.63048704500045"," -76.90618222999967"
"90","Electric Vehicle Infrastructure Program (EVIP)","http://energy.maryland.gov/Transportation/electric.html","Linganore Winecellars",12796.3,"13601 Glissans Mills Road","Mt. Airy","MD",21771,"13601 Glissans Mills Road
Mt. Airy, Maryland 21771
(39.42786325200046, -77.19080674699967)","Public","39.42786325200046"," -77.19080674699967"
"91","Electric Vehicle Charging Stations","http://www.afdc.energy.gov/locator/stations/","Annapolis Friends Meeting",NA,"351 Dubois Ave","Annapolis","MD",21401,"351 Dubois Ave
Annapolis, Maryland 21401
(39.00173904900049, -76.52447143999967)","Public","39.00173904900049"," -76.52447143999967"
"92","Residential Electric Vehicle Supply Equipment Tax Credit Program","http://energy.maryland.gov/Transportation/evse/","",144.22,"","Millersville","MD",21108,"
Millersville, Maryland 21108
(39.10043013900048, -76.62169654699966)","","39.10043013900048"," -76.62169654699966"
"93","Electric Vehicle Supply Equipment Tax Credit Program","http://energy.maryland.gov/Transportation/evse/index.html","Four Irvington Centre Associates, LLC",400,"805 King Farm Blvd","Rockville","MD",20850,"805 King Farm Blvd
Rockville, Maryland 20850
(39.111491827000464, -77.17899242699963)","Public","39.111491827000464"," -77.17899242699963"
"94","Electric Vehicle Charging Stations","http://www.afdc.energy.gov/locator/stations/","Veterans Affairs Maryland Health Care - Perry Point",NA,"Circle Dr","Perry Point","MD",21902,"Circle Dr
Perry Point, Maryland 21902
(39.55410085300048, -76.07219673599963)","Public","39.55410085300048"," -76.07219673599963"
"95","Residential Electric Vehicle Supply Equipment Tax Credit Program","http://energy.maryland.gov/Transportation/evse/","",144.22,"","Rockville","MD",20853,"
Rockville, Maryland 20853
(39.093343434000474, -77.09399864499966)","","39.093343434000474"," -77.09399864499966"
"96","Electric Vehicle Charging Stations","http://www.afdc.energy.gov/locator/stations/","MedImmune Ventures",NA,"1 MedImmune Way","Gaithersburg","MD",20878,"1 MedImmune Way
Gaithersburg, Maryland 20878
(39.12622556500048, -77.23168563299964)","Public","39.12622556500048"," -77.23168563299964"
"97","Electric Vehicle Charging Stations","http://www.afdc.energy.gov/locator/stations/","Baltimore County Revenue Authority - Washington Ave",NA,"100 W Susquehanna Ave","Towson","MD",21204,"100 W Susquehanna Ave
Towson, Maryland 21204
(39.411046454000484, -76.61493396499964)","Public","39.411046454000484"," -76.61493396499964"
"98","E-85 Refueling Stations","http://energy.maryland.gov/Transportation/e85Refueling.html","Annapolis Barrack J",NA,"610 Taylor Ave","Annapolis","MD",21401,"610 Taylor Ave
Annapolis, Maryland 21401
(38.98745144300045, -76.50235634699965)","Private","38.98745144300045"," -76.50235634699965"
"99","Electric Vehicle Charging Stations","http://www.afdc.energy.gov/locator/stations/","McHenry Row - SemaCharge",NA,"1700 Whetstone Way","Baltimore","MD",21230,"1700 Whetstone Way
Baltimore, Maryland 21230
(39.269038380000495, -76.59975479199966)","Public","39.269038380000495"," -76.59975479199966"
"100","E-85 Refueling Stations","http://energy.maryland.gov/Transportation/e85Refueling.html","Germantown W Express",NA,"20510 Germantown Road","Germantown","MD",20876,"20510 Germantown Road
Germantown, Maryland 20876
(39.19188257200045, -77.24445702199966)","Public","39.19188257200045"," -77.24445702199966"
"101","Electric Vehicle Charging Stations","http://www.afdc.energy.gov/locator/stations/","University of Maryland - College Park - Chesapeake Building",NA,"3115 Chesapeake Bldg","College Park","MD",20742,"3115 Chesapeake Bldg
College Park, Maryland 20742
(38.98748172100045, -76.94219718699964)","Public","38.98748172100045"," -76.94219718699964"
"102","Electric Vehicle Charging Stations","http://www.afdc.energy.gov/locator/stations/","Hamilton Nissan",NA,"1929 Dual Hwy","Hagerstown","MD",21740,"1929 Dual Hwy
Hagerstown, Maryland 21740
(39.606219231000466, -77.68646095399964)","Public","39.606219231000466"," -77.68646095399964"
"103","E-85 Refueling Stations","http://energy.maryland.gov/Transportation/e85Refueling.html","Baltimore Office Complex",NA,"300 W. Preston Street","Baltimore","MD",21201,"300 W. Preston Street
Baltimore, Maryland 21201
(39.30268301500047, -76.62145618199963)","Private","39.30268301500047"," -76.62145618199963"
"104","Electric Vehicle Charging Stations","http://www.afdc.energy.gov/locator/stations/","Walgreens",NA,"11745 Rousby Hall Rd","Lusby","MD",20657,"11745 Rousby Hall Rd
Lusby, Maryland 20657
(38.37333786200048, -76.44258934599964)","Public","38.37333786200048"," -76.44258934599964"
"105","Electric Vehicle Charging Stations","http://www.afdc.energy.gov/locator/stations/","First Field Shopping Center",NA,"505 Quince Orchard Rd","Gaithersburg","MD",20878,"505 Quince Orchard Rd
Gaithersburg, Maryland 20878
(39.144689325000456, -77.22016843499966)","Public","39.144689325000456"," -77.22016843499966"
"106","Electric Vehicle Charging Stations","http://www.afdc.energy.gov/locator/stations/","Walgreens",NA,"2560 Quarry Lake Dr","Baltimore","MD",21209,"2560 Quarry Lake Dr
Baltimore, Maryland 21209
(39.384630108000465, -76.68724546799967)","Public","39.384630108000465"," -76.68724546799967"
"107","Residential Electric Vehicle Supply Equipment Tax Credit Program","http://energy.maryland.gov/Transportation/evse/","",179.8,"","Hagerstown","MD",21740,"
Hagerstown, Maryland 21740
(39.6340837140005, -77.73109810999966)","","39.6340837140005"," -77.73109810999966"
"108","Electric Vehicle Charging Stations","http://www.afdc.energy.gov/locator/stations/","Walgreens",NA,"5585 Twin Knolls Rd","Columbia","MD",21045,"5585 Twin Knolls Rd
Columbia, Maryland 21045
(39.21957717300046, -76.84012220199963)","Public","39.21957717300046"," -76.84012220199963"
"109","Electric Vehicle Charging Stations","http://www.afdc.energy.gov/locator/stations/","Academy Ford",NA,"13401 Baltimore Ave","Laurel","MD",20707,"13401 Baltimore Ave
Laurel, Maryland 20707
(39.07408785700045, -76.87060061299968)","Public","39.07408785700045"," -76.87060061299968"
"110","E-85 Refueling Stations","http://energy.maryland.gov/Transportation/e85Refueling.html","Chevron",NA,"3240 Laurel Fort Meade Road","Laurel","MD",20724,"3240 Laurel Fort Meade Road
Laurel, Maryland 20724
(39.091392949000465, -76.77708384999966)","Public","39.091392949000465"," -76.77708384999966"
"111","Electric Vehicle Charging Stations","http://www.afdc.energy.gov/locator/stations/","Walgreens",NA,"9110 Liberty Rd","Randallstown","MD",21133,"9110 Liberty Rd
Randallstown, Maryland 21133
(39.369545927000445, -76.80011758499967)","Public","39.369545927000445"," -76.80011758499967"
"112","Electric Vehicle Charging Stations","http://www.afdc.energy.gov/locator/stations/","Walgreens",NA,"7901 Ritchie Hwy","Glen Burnie","MD",21061,"7901 Ritchie Hwy
Glen Burnie, Maryland 21061
(39.1403117480005, -76.60233776899963)","Public","39.1403117480005"," -76.60233776899963"
"113","Residential Electric Vehicle Supply Equipment Tax Credit Program","http://energy.maryland.gov/Transportation/evse/","",159.8,"","Annapolis","MD",21409,"
Annapolis, Maryland 21409
(39.02726024600048, -76.45412706399964)","","39.02726024600048"," -76.45412706399964"
"114","Electric Vehicle Charging Stations","http://www.afdc.energy.gov/locator/stations/","Maryland Institute College of Art",NA,"1515 W Mt Royal Ave","Baltimore","MD",21217,"1515 W Mt Royal Ave
Baltimore, Maryland 21217
(39.30976403900047, -76.62326154899966)","Public","39.30976403900047"," -76.62326154899966"
"115","Electric Vehicle Charging Stations","http://www.afdc.energy.gov/locator/stations/","Darcars Nissan - College Park",NA,"9330 Baltimore Ave","College Park","MD",20740,"9330 Baltimore Ave
College Park, Maryland 20740
(39.00780948200048, -76.92953446399963)","Public","39.00780948200048"," -76.92953446399963"
"116","Residential Electric Vehicle Supply Equipment Tax Credit Program","http://energy.maryland.gov/Transportation/evse/","",144.22,"","Upper Marlboro","MD",20772,"
Upper Marlboro, Maryland 20772
(38.79320349000045, -76.78653736499967)","","38.79320349000045"," -76.78653736499967"
"117","Electric Vehicle Charging Stations","http://www.afdc.energy.gov/locator/stations/","City of Towson - Towsontown Garage",NA,"Towsontown Blvd","Towson","MD",21204,"Towsontown Blvd
Towson, Maryland 21204
(39.39557052700047, -76.62719794099968)","Public","39.39557052700047"," -76.62719794099968"
"118","Electric Vehicle Charging Stations","http://www.afdc.energy.gov/locator/stations/","Goshen Plaza Regency",NA,"9140 Rothbury Dr","Gaithersburg","MD",20879,"9140 Rothbury Dr
Gaithersburg, Maryland 20879
(39.16688265300047, -77.18454855899967)","Public","39.16688265300047"," -77.18454855899967"
"119","Electric Vehicle Charging Stations","http://www.afdc.energy.gov/locator/stations/","Walgreens",NA,"1801 York Rd","Lutherville","MD",21093,"1801 York Rd
Lutherville, Maryland 21093
(39.4306958090005, -76.62168036199967)","Public","39.4306958090005"," -76.62168036199967"
"120","Electric Vehicle Infrastructure Program (EVIP)","http://energy.maryland.gov/Transportation/electric.html","Frederick Community College",12796.3,"7932 Opossumtown Pike","Frederick","MD",21702,"7932 Opossumtown Pike
Frederick, Maryland 21702
(39.450968540000474, -77.41321814199966)","Public","39.450968540000474"," -77.41321814199966"
"121","Electric Vehicle Charging Stations","http://www.afdc.energy.gov/locator/stations/","Walgreens",NA,"7953 Crain Hwy S","Glen Burnie","MD",21061,"7953 Crain Hwy S
Glen Burnie, Maryland 21061
(39.13318752400045, -76.63661102899965)","Public","39.13318752400045"," -76.63661102899965"
"122","Electric Vehicle Infrastructure Program (EVIP)","http://energy.maryland.gov/Transportation/electric.html","MDOT Headquarters",12796.3,"7201 Corporate Center Dr","Hanover","MD",21076,"7201 Corporate Center Dr
Hanover, Maryland 21076
(39.18209440600049, -76.69732864399964)","Public","39.18209440600049"," -76.69732864399964"
"123","Electric Vehicle Supply Equipment Tax Credit Program","http://energy.maryland.gov/Transportation/evse/index.html","Advanced Tech & Research",98,"6650 Eli Whitney Drive","Columbia","MD",21046,"6650 Eli Whitney Drive
Columbia, Maryland 21046
(39.182811916000446, -76.80627296099965)","Public","39.182811916000446"," -76.80627296099965"
"124","Biodiesel Refueling Stations","http://energy.maryland.gov/Transportation/biodieselRefueling.html","Cato Pacific Pride Fuel",NA,"2229 Northwood Drive","Salisbury","MD",21801,"2229 Northwood Drive
Salisbury, Maryland 21801
(38.403823945000454, -75.57810842699968)","Public","38.403823945000454"," -75.57810842699968"
"125","Electric Vehicle Charging Stations","http://www.afdc.energy.gov/locator/stations/","Maryland Transit Administration - Dorsey Marc",NA,"11 Dorsey Station Dr","Elkridge","MD",21075,"11 Dorsey Station Dr
Elkridge, Maryland 21075
(39.19727162100048, -76.75565741099967)","Public","39.19727162100048"," -76.75565741099967"
"126","Electric Vehicle Charging Stations","http://www.afdc.energy.gov/locator/stations/","Old Farm Court Charger",NA,"115 Old Farm Ct","Glen Burnie","MD",21060,"115 Old Farm Ct
Glen Burnie, Maryland 21060
(39.16035669500047, -76.59869926299967)","Public","39.16035669500047"," -76.59869926299967"
"127","Residential Electric Vehicle Supply Equipment Tax Credit Program","http://energy.maryland.gov/Transportation/evse/","",144.22,"","Bethesda","MD",20816,"
Bethesda, Maryland 20816
(38.95808341300045, -77.11365979399966)","","38.95808341300045"," -77.11365979399966"
"128","Residential Electric Vehicle Supply Equipment Tax Credit Program","http://energy.maryland.gov/Transportation/evse/","",218.24,"","Severna Park","MD",21146,"
Severna Park, Maryland 21146
(39.08101230900047, -76.55652580899965)","","39.08101230900047"," -76.55652580899965"
"129","Electric Vehicle Infrastructure Program (EVIP)","http://energy.maryland.gov/Transportation/electric.html","University of Maryland-Baltimore County",12796.3,"1000 Hilltop Rd","Baltimore","MD",21250,"1000 Hilltop Rd
Baltimore, Maryland 21250
(39.27492121500046, -76.66813596499964)","Public","39.27492121500046"," -76.66813596499964"
"130","Electric Vehicle Charging Stations","http://www.afdc.energy.gov/locator/stations/","University of Maryland - College Park - Patapsco Building",NA,"5201 Paint Branch Pkwy","College Park","MD",20740,"5201 Paint Branch Pkwy
College Park, Maryland 20740
(38.976794553000445, -76.92353021299965)","Public","38.976794553000445"," -76.92353021299965"
"131","Electric Vehicle Charging Stations","http://www.afdc.energy.gov/locator/stations/","Waldorf Ford",NA,"2440 Crain Hwy","Waldorf","MD",20601,"2440 Crain Hwy
Waldorf, Maryland 20601
(38.644096257000456, -76.89202302899963)","Public","38.644096257000456"," -76.89202302899963"
"132","Electric Vehicle Charging Stations","http://www.afdc.energy.gov/locator/stations/","Shirlen Building",NA,"2108 Emmorton Rd","Bel Air","MD",21015,"2108 Emmorton Rd
Bel Air, Maryland 21015
(39.49876027300047, -76.32532332499966)","Public","39.49876027300047"," -76.32532332499966"
"133","Electric Vehicle Charging Stations","http://www.afdc.energy.gov/locator/stations/","Baltimore Washington Medical Center",NA,"300 Hospital Dr","Glen Burnie","MD",21061,"300 Hospital Dr
Glen Burnie, Maryland 21061
(39.13893664800048, -76.62251181699963)","Public","39.13893664800048"," -76.62251181699963"
"134","Electric Vehicle Supply Equipment Tax Credit Program","http://energy.maryland.gov/Transportation/evse/index.html","President Street Associates",400,"14401 Sweitzer Lane","Laurel","MD",20707,"14401 Sweitzer Lane
Laurel, Maryland 20707
(39.08829011100045, -76.89862729599963)","Public","39.08829011100045"," -76.89862729599963"
"135","Electric Vehicle Charging Stations","http://www.afdc.energy.gov/locator/stations/","City of Baltimore",NA,"400 W Lexington St","Baltimore","MD",21201,"400 W Lexington St
Baltimore, Maryland 21201
(39.291456123000444, -76.62249701199966)","Public","39.291456123000444"," -76.62249701199966"
"136","Electric Vehicle Infrastructure Program (EVIP)","http://energy.maryland.gov/Transportation/electric.html","City of Annapolis, Knighton Garage",12796.3,"1 Colonial Avenue","Annapolis","MD",21412,"1 Colonial Avenue
Annapolis, Maryland 21412
(38.97688928500048, -76.49911292299964)","Public","38.97688928500048"," -76.49911292299964"
"137","Electric Vehicle Charging Stations","http://www.afdc.energy.gov/locator/stations/","State of Maryland Capital Complex - Calvert Street Parking Garage",NA,"29 Saint Johns St","Annapolis","MD",21401,"29 Saint Johns St
Annapolis, Maryland 21401
(38.981654954000476, -76.49358455299966)","Public","38.981654954000476"," -76.49358455299966"
"138","Residential Electric Vehicle Supply Equipment Tax Credit Program","http://energy.maryland.gov/Transportation/evse/","",189.81,"","Laurel","MD",20723,"
Laurel, Maryland 20723
(39.12729096300046, -76.85436724599964)","","39.12729096300046"," -76.85436724599964"
"139","Electric Vehicle Supply Equipment Tax Credit Program","http://energy.maryland.gov/Transportation/evse/index.html","Capitol Fisker",437,"6500 Capitol Drive","Greenbelt","MD",20770,"6500 Capitol Drive
Greenbelt, Maryland 20770
(38.996667741000465, -76.89354973199966)","Public","38.996667741000465"," -76.89354973199966"
"140","Electric Vehicle Infrastructure Program (EVIP)","http://energy.maryland.gov/Transportation/electric.html","Baltimore Washington International Airport (BWI) - Daily Parking Garage",25592.6,"7062 Elm Rd","Baltimore","MD",21240,"7062 Elm Rd
Baltimore, Maryland 21240
(39.18851128500046, -76.67579522499966)","Public","39.18851128500046"," -76.67579522499966"
"141","Residential Electric Vehicle Supply Equipment Tax Credit Program","http://energy.maryland.gov/Transportation/evse/","",209.99,"","Owings","MD",20736,"
Owings, Maryland 20736
(38.696640087000446, -76.62067981499968)","","38.696640087000446"," -76.62067981499968"
"142","Electric Vehicle Charging Stations","http://www.afdc.energy.gov/locator/stations/","City of Towson - West Village Garage",NA,"Emerson Dr","Towson","MD",21204,"Emerson Dr
Towson, Maryland 21204
(39.393360747000486, -76.61472751499963)","Public","39.393360747000486"," -76.61472751499963"
"143","Electric Vehicle Charging Stations","http://www.afdc.energy.gov/locator/stations/","Walgreens",NA,"9616 Harford Rd","Baltimore","MD",21234,"9616 Harford Rd
Baltimore, Maryland 21234
(39.39582916000046, -76.52262700599965)","Public","39.39582916000046"," -76.52262700599965"
"144","Residential Electric Vehicle Supply Equipment Tax Credit Program","http://energy.maryland.gov/Transportation/evse/","",98,"","Baltimore","MD",21209,"
Baltimore, Maryland 21209
(39.37418286500048, -76.66979575799968)","","39.37418286500048"," -76.66979575799968"
"145","Electric Vehicle Charging Stations","http://www.afdc.energy.gov/locator/stations/","5 Choke Cherry",NA,"7 Choke Cherry Ln","Rockville","MD",20850,"7 Choke Cherry Ln
Rockville, Maryland 20850
(39.113583718000484, -77.18378847699967)","Public","39.113583718000484"," -77.18378847699967"
"146","Biodiesel Refueling Stations","http://energy.maryland.gov/Transportation/biodieselRefueling.html","Baltimore Biodiesel Cooperative",NA,"2800 Sisson St","Baltimore","MD",21211,"2800 Sisson St
Baltimore, Maryland 21211
(39.31983862700048, -76.62574288699966)","Public","39.31983862700048"," -76.62574288699966"
"147","Electric Vehicle Charging Stations","http://www.afdc.energy.gov/locator/stations/","Century Ford",NA,"302 Century Dr","Mount Airy","MD",21771,"302 Century Dr
Mount Airy, Maryland 21771
(39.367873542000495, -77.14261921899964)","Public","39.367873542000495"," -77.14261921899964"
"148","E-85 Refueling Stations","http://energy.maryland.gov/Transportation/e85Refueling.html","Shell",NA,"811 Bestgate Rd","Annapolis","MD",21401,"811 Bestgate Rd
Annapolis, Maryland 21401
(38.99409401900044, -76.53701166099967)","Public","38.99409401900044"," -76.53701166099967"
"149","Electric Vehicle Charging Stations","http://www.afdc.energy.gov/locator/stations/","Potomac Place",NA,"10122 River Rd","Potomac","MD",20854,"10122 River Rd
Potomac, Maryland 20854
(39.017768427000476, -77.20858152299968)","Public","39.017768427000476"," -77.20858152299968"
"150","Residential Electric Vehicle Supply Equipment Tax Credit Program","http://energy.maryland.gov/Transportation/evse/","",109,"","Chester","MD",21619,"
Chester, Maryland 21619
(38.96937173700047, -76.28169986599966)","","38.96937173700047"," -76.28169986599966"
"151","Electric Vehicle Charging Stations","http://www.afdc.energy.gov/locator/stations/","Indian Head Town Hall",NA,"4195 Indian Head Hwy","Indian Head","MD",20640,"4195 Indian Head Hwy
Indian Head, Maryland 20640
(38.59974367200044, -77.16433655299966)","Public","38.59974367200044"," -77.16433655299966"
"152","Residential Electric Vehicle Supply Equipment Tax Credit Program","http://energy.maryland.gov/Transportation/evse/","",199,"","Cambridge","MD",21613,"
Cambridge, Maryland 21613
(38.56217085700047, -76.08838622699966)","","38.56217085700047"," -76.08838622699966"
"153","Electric Vehicle Charging Stations","http://www.afdc.energy.gov/locator/stations/","Walgreens",NA,"5740 Ritchie Hwy","Brooklyn","MD",21225,"5740 Ritchie Hwy
Brooklyn, Maryland 21225
(39.216530124000485, -76.61448595799965)","Public","39.216530124000485"," -76.61448595799965"
"154","Biodiesel Refueling Stations","http://energy.maryland.gov/Transportation/biodieselRefueling.html","Cropper Oil & Gas",NA,"10535 Ocean Gateway","Berlin","MD",21811,"10535 Ocean Gateway
Berlin, Maryland 21811
(38.34138779100044, -75.19864880799963)","Public","38.34138779100044"," -75.19864880799963"
"155","Electric Vehicle Charging Stations","http://www.afdc.energy.gov/locator/stations/","LifeBridge Health - Main Lot",NA,"2401 W Belvedere Ave","Baltimore","MD",21215,"2401 W Belvedere Ave
Baltimore, Maryland 21215
(39.35468514100046, -76.66225112699965)","Public","39.35468514100046"," -76.66225112699965"
"156","Electric Vehicle Charging Stations","http://www.afdc.energy.gov/locator/stations/","Walgreens",NA,"8606 Philadelphia Rd","Rosedale","MD",21237,"8606 Philadelphia Rd
Rosedale, Maryland 21237
(39.33369503500046, -76.49552653099965)","Public","39.33369503500046"," -76.49552653099965"
"157","Electric Vehicle Infrastructure Program (EVIP)","http://energy.maryland.gov/Transportation/electric.html","MTA White Marsh Park & Ride",31990.75,"8480 Honeygo Blvd","Nottingham","MD",21236,"8480 Honeygo Blvd
Nottingham, Maryland 21236
(39.378600152000445, -76.46006490699966)","Public","39.378600152000445"," -76.46006490699966"
"158","Residential Electric Vehicle Supply Equipment Tax Credit Program","http://energy.maryland.gov/Transportation/evse/","",132.64,"","Gaithersburg","MD",20877,"
Gaithersburg, Maryland 20877
(39.140912555000455, -77.19054901099963)","","39.140912555000455"," -77.19054901099963"
"159","Electric Vehicle Infrastructure Program (EVIP)","http://energy.maryland.gov/Transportation/electric.html","Lexington Street Garage",14929.56,"510 E Lexington St","Baltimore","MD",21202,"510 E Lexington St
Baltimore, Maryland 21202
(39.29133818000048, -76.60834154199966)","Public","39.29133818000048"," -76.60834154199966"
"160","Electric Vehicle Charging Stations","http://www.afdc.energy.gov/locator/stations/","Walgreens",NA,"3005 Emmorton Rd","Abingdon","MD",21009,"3005 Emmorton Rd
Abingdon, Maryland 21009
(39.47668998500046, -76.30971754399962)","Public","39.47668998500046"," -76.30971754399962"
"161","Residential Electric Vehicle Supply Equipment Tax Credit Program","http://energy.maryland.gov/Transportation/evse/","",144.22,"","College Park","MD",20740,"
College Park, Maryland 20740
(38.9967235470005, -76.92870594499965)","","38.9967235470005"," -76.92870594499965"
"162","Electric Vehicle Charging Stations","http://www.afdc.energy.gov/locator/stations/","University of Maryland-College Park - Union Lane",NA,"Library Ln","College Park","MD",20740,"Library Ln
College Park, Maryland 20740
(38.984453879000455, -76.94538865799967)","Public","38.984453879000455"," -76.94538865799967"
"163","Electric Vehicle Charging Stations","http://www.afdc.energy.gov/locator/stations/","Owen Brown Community Center",NA,"6800 Cradlerock Way","Columbia","MD",21045,"6800 Cradlerock Way
Columbia, Maryland 21045
(39.19441320800047, -76.84114671599963)","Public","39.19441320800047"," -76.84114671599963"
"164","Electric Vehicle Charging Stations","http://www.afdc.energy.gov/locator/stations/","University of Maryland",NA,"220 Arch St","Baltimore","MD",21201,"220 Arch St
Baltimore, Maryland 21201
(39.29226794100049, -76.62532597499967)","Public","39.29226794100049"," -76.62532597499967"
"165","Electric Vehicle Charging Stations","http://www.afdc.energy.gov/locator/stations/","Walgreens",NA,"25 High St","Waldorf","MD",20602,"25 High St
Waldorf, Maryland 20602
(38.60257454800046, -76.90293531799966)","Public","38.60257454800046"," -76.90293531799966"
"166","Residential Electric Vehicle Supply Equipment Tax Credit Program","http://energy.maryland.gov/Transportation/evse/","",159.8,"","Ellicott City","MD",21042,"
Ellicott City, Maryland 21042
(39.27378282300049, -76.86071964399963)","","39.27378282300049"," -76.86071964399963"
"167","Electric Vehicle Charging Stations","http://www.afdc.energy.gov/locator/stations/","University of Maryland-College Park - Lot EE",NA,"Paint Branch Dr","College Park","MD",20740,"Paint Branch Dr
College Park, Maryland 20740
(38.998784241000465, -76.94153593399966)","Public","38.998784241000465"," -76.94153593399966"
"168","Electric Vehicle Charging Stations","http://www.afdc.energy.gov/locator/stations/","Maryland Transit Authority - Falls Road",NA,"3 Railroad Ave","Baltimore","MD",21209,"3 Railroad Ave
Baltimore, Maryland 21209
(39.37609743700045, -76.65067549699967)","Public","39.37609743700045"," -76.65067549699967"
"169","Residential Electric Vehicle Supply Equipment Tax Credit Program","http://energy.maryland.gov/Transportation/evse/","",144.22,"","Columbia","MD",21045,"
Columbia, Maryland 21045
(39.205861697000444, -76.82756725299964)","","39.205861697000444"," -76.82756725299964"
"170","Electric Vehicle Charging Stations","http://www.afdc.energy.gov/locator/stations/","Rockville Town Square",NA,"333 Hungerford Dr","Rockville","MD",20850,"333 Hungerford Dr
Rockville, Maryland 20850
(39.08609814500045, -77.14882024599967)","Public","39.08609814500045"," -77.14882024599967"
"171","Electric Vehicle Infrastructure Program (EVIP)","http://energy.maryland.gov/Transportation/electric.html","Johns Hopkins University",31990.75,"3101 Wyman Park Dr","Baltimore","MD",21218,"3101 Wyman Park Dr
Baltimore, Maryland 21218
(39.325962166000465, -76.62261135999967)","Public","39.325962166000465"," -76.62261135999967"
"172","Residential Electric Vehicle Supply Equipment Tax Credit Program","http://energy.maryland.gov/Transportation/evse/","",240,"","Silver Spring","MD",20910,"
Silver Spring, Maryland 20910
(38.99797056400047, -77.03249943599963)","","38.99797056400047"," -77.03249943599963"
"173","Electric Vehicle Infrastructure Program (EVIP)","http://energy.maryland.gov/Transportation/electric.html","Office building",6398.15,"1101 Wootton Parkway","Rockville","MD",20852,"1101 Wootton Parkway
Rockville, Maryland 20852
(39.0670583860005, -77.15583959899965)","Public","39.0670583860005"," -77.15583959899965"
"174","Electric Vehicle Charging Stations","http://www.afdc.energy.gov/locator/stations/","University of Maryland",NA,"622 W Fayette St","Baltimore","MD",21201,"622 W Fayette St
Baltimore, Maryland 21201
(39.29026747400047, -76.62482141699968)","Public","39.29026747400047"," -76.62482141699968"
"175","Residential Electric Vehicle Supply Equipment Tax Credit Program","http://energy.maryland.gov/Transportation/evse/","",182.02,"","Bowie","MD",20715,"
Bowie, Maryland 20715
(38.98124229300049, -76.74261804899965)","","38.98124229300049"," -76.74261804899965"
"176","Residential Electric Vehicle Supply Equipment Tax Credit Program","http://energy.maryland.gov/Transportation/evse/","",199.8,"","Glen Burnie","MD",21060,"
Glen Burnie, Maryland 21060
(39.1643842740005, -76.59467930199963)","","39.1643842740005"," -76.59467930199963"
"177","Electric Vehicle Charging Stations","http://www.afdc.energy.gov/locator/stations/","MedImmune Ventures",NA,"1 MedImmune Way","Gaithersburg","MD",20878,"1 MedImmune Way
Gaithersburg, Maryland 20878
(39.12622556500048, -77.23168563299964)","Public","39.12622556500048"," -77.23168563299964"
"178","Electric Vehicle Charging Stations","http://www.afdc.energy.gov/locator/stations/","LifeBridge Health - Visitor Lot J",NA,"5401 Old Court Rd","Randallstown","MD",21133,"5401 Old Court Rd
Randallstown, Maryland 21133
(39.35955543300048, -76.78195821699967)","Public","39.35955543300048"," -76.78195821699967"
"179","Biodiesel Refueling Stations","http://energy.maryland.gov/Transportation/biodieselRefueling.html","Cato Pacific Pride Fuel",NA,"436 Eastern Shore Dr","Salisbury","MD",21804,"436 Eastern Shore Dr
Salisbury, Maryland 21804
(38.36049886300049, -75.59553397699966)","Public","38.36049886300049"," -75.59553397699966"
"180","Electric Vehicle Infrastructure Program (EVIP)","http://energy.maryland.gov/Transportation/electric.html","Autoflex Fleet Services",12796.3,"1206 Ridgely St","Baltimore","MD",21230,"1206 Ridgely St
Baltimore, Maryland 21230
(39.27752379900045, -76.62654269899963)","Public","39.27752379900045"," -76.62654269899963"
"181","Electric Vehicle Charging Stations","http://www.afdc.energy.gov/locator/stations/","Under Armour - Cheer Building",NA,"1450 Beason St","Baltimore","MD",21230,"1450 Beason St
Baltimore, Maryland 21230
(39.271836876000464, -76.59289210399965)","Public","39.271836876000464"," -76.59289210399965"
"182","Biodiesel Refueling Stations","http://energy.maryland.gov/Transportation/biodieselRefueling.html","Baltimore Biodiesel Cooperative",NA,"10475 Little Patuxent Pkwy","Columbia","MD",21044,"10475 Little Patuxent Pkwy
Columbia, Maryland 21044
(39.2115137130005, -76.86301920699964)","Public","39.2115137130005"," -76.86301920699964"
"183","Electric Vehicle Infrastructure Program (EVIP)","http://energy.maryland.gov/Transportation/electric.html","Chesapeake Bay Foundation",12796.3,"6 Herndon Ave","Annapolis","MD",21403,"6 Herndon Ave
Annapolis, Maryland 21403
(38.93521820400048, -76.46362090599968)","Public","38.93521820400048"," -76.46362090599968"
"184","Electric Vehicle Charging Stations","http://www.afdc.energy.gov/locator/stations/","MedImmune Ventures - Employee Parking Lot",NA,"101 Orchard Ridge Dr","Gaithersburg","MD",20878,"101 Orchard Ridge Dr
Gaithersburg, Maryland 20878
(39.12749762100049, -77.23203266499968)","Public","39.12749762100049"," -77.23203266499968"
"185","Electric Vehicle Charging Stations","http://www.afdc.energy.gov/locator/stations/","University of Maryland",NA,"5 N Paca St","Baltimore","MD",21201,"5 N Paca St
Baltimore, Maryland 21201
(39.28940167000047, -76.62224532599964)","Public","39.28940167000047"," -76.62224532599964"
"186","Electric Vehicle Charging Stations","http://www.afdc.energy.gov/locator/stations/","Charles County Public Library - PD Brown Memorial Branch",NA,"50 Village St","Waldorf","MD",20602,"50 Village St
Waldorf, Maryland 20602
(38.601754799000446, -76.90024756899965)","Public","38.601754799000446"," -76.90024756899965"
"187","Electric Vehicle Charging Stations","http://www.afdc.energy.gov/locator/stations/","Olde Towne Youth Center - Gaithersburg",NA,"301 Teachers Way","Gaithersburg","MD",20877,"301 Teachers Way
Gaithersburg, Maryland 20877
(39.14255284400048, -77.18270759899963)","Public","39.14255284400048"," -77.18270759899963"
"188","Electric Vehicle Charging Stations","http://www.afdc.energy.gov/locator/stations/","Element Hotels - Arundel Mills",NA,"7522 Teague Rd","Hanover","MD",21076,"7522 Teague Rd
Hanover, Maryland 21076
(39.154914334000466, -76.71646865899964)","Public","39.154914334000466"," -76.71646865899964"
"189","Residential Electric Vehicle Supply Equipment Tax Credit Program","http://energy.maryland.gov/Transportation/evse/","",144.22,"","Chevy Chase","MD",20815,"
Chevy Chase, Maryland 20815
(38.977953123000475, -77.08250610499965)","","38.977953123000475"," -77.08250610499965"
"190","E-85 Refueling Stations","http://energy.maryland.gov/Transportation/e85Refueling.html","Chevron",NA,"2010 Frederick Rd","Germantown","MD",20876,"2010 Frederick Rd
Germantown, Maryland 20876
(39.16877350900046, -77.23407725199968)","Public","39.16877350900046"," -77.23407725199968"
"191","Residential Electric Vehicle Supply Equipment Tax Credit Program","http://energy.maryland.gov/Transportation/evse/","",139.99,"","Rockville","MD",20853,"
Rockville, Maryland 20853
(39.093343434000474, -77.09399864499966)","","39.093343434000474"," -77.09399864499966"
"192","E-85 Refueling Stations","http://energy.maryland.gov/Transportation/e85Refueling.html","Chevron",NA,"12301 Middle Brook Road","Germantown","MD",20874,"12301 Middle Brook Road
Germantown, Maryland 20874
(39.17541764700047, -77.25404491699965)","Public","39.17541764700047"," -77.25404491699965"
"193","Electric Vehicle Charging Stations","http://www.afdc.energy.gov/locator/stations/","Chase Tower",NA,"445 Willard Ave","Chevy Chase","MD",20815,"445 Willard Ave
Chevy Chase, Maryland 20815
(38.960323427000446, -77.09683613799967)","Public","38.960323427000446"," -77.09683613799967"
"194","Electric Vehicle Infrastructure Program (EVIP)","http://energy.maryland.gov/Transportation/electric.html","Office building",6398.15,"2000 Tower Oaks Boulevard","Rockville","MD",20852,"2000 Tower Oaks Boulevard
Rockville, Maryland 20852
(39.06666764200048, -77.15381166499964)","Public","39.06666764200048"," -77.15381166499964"
"195","Electric Vehicle Infrastructure Program (EVIP)","http://energy.maryland.gov/Transportation/electric.html","Harbor East - Legg Mason",12796.3,"100 International Dr","Baltimore","MD",21202,"100 International Dr
Baltimore, Maryland 21202
(39.28279746800047, -76.60191884199963)","Public","39.28279746800047"," -76.60191884199963"
"196","Electric Vehicle Charging Stations","http://www.afdc.energy.gov/locator/stations/","Walgreens",NA,"9621 Belair Rd","Baltimore","MD",21236,"9621 Belair Rd
Baltimore, Maryland 21236
(39.413388032000455, -76.46314121999967)","Public","39.413388032000455"," -76.46314121999967"
"197","Electric Vehicle Charging Stations","http://www.afdc.energy.gov/locator/stations/","University of Maryland - Penn Garage",NA,"120 Penn St","Baltimore","MD",21201,"120 Penn St
Baltimore, Maryland 21201
(39.287170337000475, -76.62594811699967)","Public","39.287170337000475"," -76.62594811699967"
"198","Electric Vehicle Infrastructure Program (EVIP)","http://energy.maryland.gov/Transportation/electric.html","Saint John's Headquarters",12796.3,"2560 Lord Baltimore Dr","Baltimore","MD",21244,"2560 Lord Baltimore Dr
Baltimore, Maryland 21244
(39.325725143000454, -76.75097998499967)","Public","39.325725143000454"," -76.75097998499967"
"199","Electric Vehicle Infrastructure Program (EVIP)","http://energy.maryland.gov/Transportation/electric.html","St. John's Properties",12796.3,"2560 Lord Baltimore Drive","Baltimore","MD",21244,"2560 Lord Baltimore Drive
Baltimore, Maryland 21244
(39.325725143000454, -76.75097998499967)","Public","39.325725143000454"," -76.75097998499967"
"200","Electric Vehicle Charging Stations","http://www.afdc.energy.gov/locator/stations/","Darcars Nissan",NA,"15911 Indianola Dr","Rockville","MD",20855,"15911 Indianola Dr
Rockville, Maryland 20855
(39.1135891080005, -77.16059004899967)","Public","39.1135891080005"," -77.16059004899967"
"201","Electric Vehicle Charging Stations","http://www.afdc.energy.gov/locator/stations/","SunTrust Bank",NA,"10415 Old Georgetown Rd","Bethesda","MD",20814,"10415 Old Georgetown Rd
Bethesda, Maryland 20814
(39.02580985300045, -77.12576009099968)","Public","39.02580985300045"," -77.12576009099968"
"202","Electric Vehicle Infrastructure Program (EVIP)","http://energy.maryland.gov/Transportation/electric.html","Redwood Street Garage",14929.56,"11 S Eutaw Pl","Baltimore","MD",21201,"11 S Eutaw Pl
Baltimore, Maryland 21201
(39.28836175900045, -76.62083469299967)","Public","39.28836175900045"," -76.62083469299967"
"203","Electric Vehicle Charging Stations","http://www.afdc.energy.gov/locator/stations/","University of Maryland - College Park - Severn Building",NA,"5245 Greenbelt Rd","College Park","MD",20740,"5245 Greenbelt Rd
College Park, Maryland 20740
(38.99807783400047, -76.92303048299965)","Public","38.99807783400047"," -76.92303048299965"
"204","Electric Vehicle Infrastructure Program (EVIP)","http://energy.maryland.gov/Transportation/electric.html","BGE Lord Baltimore Building",12796.3,"2900 Lord Baltimore Dr","Baltimore","MD",21202,"2900 Lord Baltimore Dr
Baltimore, Maryland 21202
(39.29527322000047, -76.61013883199968)","Public","39.29527322000047"," -76.61013883199968"
"205","Electric Vehicle Infrastructure Program (EVIP)","http://energy.maryland.gov/Transportation/electric.html","MDOT State Highway Administration",12796.3,"1400 Old Philadelphia Rd","Aberdeen","MD",21001,"1400 Old Philadelphia Rd
Aberdeen, Maryland 21001
(39.49104474000046, -76.20481668699966)","Private","39.49104474000046"," -76.20481668699966"
"206","Electric Vehicle Charging Stations","http://www.afdc.energy.gov/locator/stations/","Criswell Nissan",NA,"19574 Amaranth Dr","Germantown","MD",20874,"19574 Amaranth Dr
Germantown, Maryland 20874
(39.176279758000476, -77.25063273899963)","Public","39.176279758000476"," -77.25063273899963"
"207","Electric Vehicle Charging Stations","http://www.afdc.energy.gov/locator/stations/","Nissan of Bowie",NA,"2500 N Crain Hwy","Bowie","MD",20716,"2500 N Crain Hwy
Bowie, Maryland 20716
(38.924288695000484, -76.71736123199963)","Public","38.924288695000484"," -76.71736123199963"
"208","Electric Vehicle Charging Stations","http://www.afdc.energy.gov/locator/stations/","LifeBridge Health - Belvedere Garage",NA,"2455-2491 W Belvedere Ave","Baltimore","MD",21215,"2455-2491 W Belvedere Ave
Baltimore, Maryland 21215
(39.33975031400047, -76.68545821299966)","Public","39.33975031400047"," -76.68545821299966"
"209","Electric Vehicle Supply Equipment Tax Credit Program","http://energy.maryland.gov/Transportation/evse/index.html","One Irvington Centre Associate",400,"702 King Farm Blvd","Rockville","MD",20850,"702 King Farm Blvd
Rockville, Maryland 20850
(39.11126046600049, -77.17880349199964)","Public","39.11126046600049"," -77.17880349199964"
"210","Residential Electric Vehicle Supply Equipment Tax Credit Program","http://energy.maryland.gov/Transportation/evse/","",156.33,"","Baltimore","MD",21209,"
Baltimore, Maryland 21209
(39.37418286500048, -76.66979575799968)","","39.37418286500048"," -76.66979575799968"
"211","Electric Vehicle Infrastructure Program (EVIP)","http://energy.maryland.gov/Transportation/electric.html","Little Italy Garage",14929.56,"400 S Central Ave","Baltimore","MD",21202,"400 S Central Ave
Baltimore, Maryland 21202
(39.28598820200045, -76.59925593599968)","Public","39.28598820200045"," -76.59925593599968"
"212","Electric Vehicle Charging Stations","http://www.afdc.energy.gov/locator/stations/","Baltimore County Revenue Authority - Baltimore Ave",NA,"110 W Susquehanna Ave","Towson","MD",21204,"110 W Susquehanna Ave
Towson, Maryland 21204
(39.39871538300048, -76.60642807299968)","Public","39.39871538300048"," -76.60642807299968"
"213","Electric Vehicle Charging Stations","http://www.afdc.energy.gov/locator/stations/","Walgreens",NA,"2204 Rolling Rd","Baltimore","MD",21244,"2204 Rolling Rd
Baltimore, Maryland 21244
(39.32022592900046, -76.75815987599964)","Public","39.32022592900046"," -76.75815987599964"
"214","Electric Vehicle Charging Stations","http://www.afdc.energy.gov/locator/stations/","National Institute of Health",NA,"5635 Fishers Ln","Rockville","MD",20852,"5635 Fishers Ln
Rockville, Maryland 20852
(39.06279793300047, -77.11482738599966)","Public","39.06279793300047"," -77.11482738599966"
"215","E-85 Refueling Stations","http://energy.maryland.gov/Transportation/e85Refueling.html","W Express",NA,"5143 River Road","Bethesda","MD",20816,"5143 River Road
Bethesda, Maryland 20816
(38.9643144100005, -77.10294386699968)","Public","38.9643144100005"," -77.10294386699968"
"216","E-85 Refueling Stations","http://energy.maryland.gov/Transportation/e85Refueling.html","Chevron",NA,"1395 West Patrick St","Frederick","MD",21702,"1395 West Patrick St
Frederick, Maryland 21702
(39.41946379100045, -77.46012913099963)","Public","39.41946379100045"," -77.46012913099963"
"217","Electric Vehicle Charging Stations","http://www.afdc.energy.gov/locator/stations/","The Prime Street Grille",NA,"4680 Crain Hwy","White Plains","MD",20695,"4680 Crain Hwy
White Plains, Maryland 20695
(38.58363688600048, -76.94974285899963)","Public","38.58363688600048"," -76.94974285899963"
"218","Residential Electric Vehicle Supply Equipment Tax Credit Program","http://energy.maryland.gov/Transportation/evse/","",144.22,"","Clinton","MD",20735,"
Clinton, Maryland 20735
(38.75722249900048, -76.89952923299967)","","38.75722249900048"," -76.89952923299967"
"219","Electric Vehicle Charging Stations","http://www.afdc.energy.gov/locator/stations/","Rockwall II",NA,"5515 Security Ln","Rockville","MD",20852,"5515 Security Ln
Rockville, Maryland 20852
(39.04184611600044, -77.11094169999967)","Public","39.04184611600044"," -77.11094169999967"
"220","Residential Electric Vehicle Supply Equipment Tax Credit Program","http://energy.maryland.gov/Transportation/evse/","",92,"","Columbia","MD",21045,"
Columbia, Maryland 21045
(39.205861697000444, -76.82756725299964)","","39.205861697000444"," -76.82756725299964"
"221","Electric Vehicle Charging Stations","http://www.afdc.energy.gov/locator/stations/","MOM's Organic Market",NA,"3301 Plaza Way","Waldorf","MD",20603,"3301 Plaza Way
Waldorf, Maryland 20603
(38.62170409100048, -76.91806529799965)","Public","38.62170409100048"," -76.91806529799965"
"222","Electric Vehicle Charging Stations","http://www.afdc.energy.gov/locator/stations/","Baltimore County Revenue Authority - Delaware Ave Parking Lot",NA,"5 E Pennsylvania Ave","Towson","MD",21286,"5 E Pennsylvania Ave
Towson, Maryland 21286
(39.40032281000049, -76.60130377999963)","Public","39.40032281000049"," -76.60130377999963"
"223","Residential Electric Vehicle Supply Equipment Tax Credit Program","http://energy.maryland.gov/Transportation/evse/","",144.22,"","Chevy Chase","MD",20815,"
Chevy Chase, Maryland 20815
(38.977953123000475, -77.08250610499965)","","38.977953123000475"," -77.08250610499965"
"224","Electric Vehicle Charging Stations","http://www.afdc.energy.gov/locator/stations/","Walgreens",NA,"4020 Eastern Ave","Baltimore","MD",21224,"4020 Eastern Ave
Baltimore, Maryland 21224
(39.28685755800046, -76.56256529699965)","Public","39.28685755800046"," -76.56256529699965"
"225","Electric Vehicle Infrastructure Program (EVIP)","http://energy.maryland.gov/Transportation/electric.html","Caroline Street Garage",14929.56,"805 S Caroline St","Baltimore","MD",21201,"805 S Caroline St
Baltimore, Maryland 21201
(39.281483892000495, -76.59645480699965)","Public","39.281483892000495"," -76.59645480699965"
"226","Electric Vehicle Supply Equipment Tax Credit Program","http://energy.maryland.gov/Transportation/evse/index.html","Maple Lawn Office Four, LLC",1200,"8160 Maple Lawn Blvd","Fulton","MD",20759,"8160 Maple Lawn Blvd
Fulton, Maryland 20759
(39.14914507500049, -76.90509772599967)","Public","39.14914507500049"," -76.90509772599967"
"227","Electric Vehicle Charging Stations","http://www.afdc.energy.gov/locator/stations/","Passport Nissan Marlow Heights",NA,"5000 Auth Way","Marlow Heights","MD",20746,"5000 Auth Way
Marlow Heights, Maryland 20746
(38.82616606300047, -76.92377467999967)","Public","38.82616606300047"," -76.92377467999967"
"228","E-85 Refueling Stations","http://energy.maryland.gov/Transportation/e85Refueling.html","Montgomery County",NA,"16640 Crabbs Branch Way","Rockville","MD",20855,"16640 Crabbs Branch Way
Rockville, Maryland 20855
(39.127680892000456, -77.16697801599963)","Public","39.127680892000456"," -77.16697801599963"
"229","Electric Vehicle Charging Stations","http://www.afdc.energy.gov/locator/stations/","Walgreens",NA,"6323 Baltimore National Pike","Catonsville","MD",21228,"6323 Baltimore National Pike
Catonsville, Maryland 21228
(39.283864190000486, -76.75565525099967)","Public","39.283864190000486"," -76.75565525099967"
"230","Electric Vehicle Charging Stations","http://www.afdc.energy.gov/locator/stations/","Walgreens",NA,"6700 Ritchie Hwy","Glen Burnie","MD",21061,"6700 Ritchie Hwy
Glen Burnie, Maryland 21061
(39.19335316100046, -76.61360624199966)","Public","39.19335316100046"," -76.61360624199966"
"231","Residential Electric Vehicle Supply Equipment Tax Credit Program","http://energy.maryland.gov/Transportation/evse/","",209.8,"","Bowie","MD",20716,"
Bowie, Maryland 20716
(38.93107051400045, -76.72551610799968)","","38.93107051400045"," -76.72551610799968"
"232","E-85 Refueling Stations","http://energy.maryland.gov/Transportation/e85Refueling.html","SHA Refueling Station",NA,"7491 Connelley Drive","Hanover","MD",21076,"7491 Connelley Drive
Hanover, Maryland 21076
(39.15996168200047, -76.68031103599964)","Private","39.15996168200047"," -76.68031103599964"
"233","Electric Vehicle Charging Stations","http://www.afdc.energy.gov/locator/stations/","City of Towson - Union Garage",NA,"8000 York Rd","Towson","MD",21252,"8000 York Rd
Towson, Maryland 21252
(39.39299146500048, -76.60449676599967)","Public","39.39299146500048"," -76.60449676599967"
"234","E-85 Refueling Stations","http://www.afdc.energy.gov/locator/stations/","Town Center Chevron",NA,"12301 Middlebrook Rd","Germantown","MD",20874,"12301 Middlebrook Rd
Germantown, Maryland 20874
(39.17541764700047, -77.25404491699965)","Public","39.17541764700047"," -77.25404491699965"
"235","Electric Vehicle Charging Stations","http://www.afdc.energy.gov/locator/stations/","The Frederick Motor Company",NA,"1 Waverley Dr","Frederick","MD",21702,"1 Waverley Dr
Frederick, Maryland 21702
(39.419768115000466, -77.46114120899966)","Public","39.419768115000466"," -77.46114120899966"
"236","Electric Vehicle Charging Stations","http://www.afdc.energy.gov/locator/stations/","Walgreens",NA,"1930 Pulaski Hwy","Edgewood","MD",21040,"1930 Pulaski Hwy
Edgewood, Maryland 21040
(39.435337510000465, -76.31533519799967)","Public","39.435337510000465"," -76.31533519799967"
"237","Residential Electric Vehicle Supply Equipment Tax Credit Program","http://energy.maryland.gov/Transportation/evse/","",144.22,"","Severn","MD",21144,"
Severn, Maryland 21144
(39.126261196000485, -76.69088641399964)","","39.126261196000485"," -76.69088641399964"
"238","Electric Vehicle Charging Stations","http://www.afdc.energy.gov/locator/stations/","The Tower Companies - The Blairs",NA,"1401 Blair Mill Rd","Silver Spring","MD",20910,"1401 Blair Mill Rd
Silver Spring, Maryland 20910
(38.99011858600045, -77.03225538399965)","Public","38.99011858600045"," -77.03225538399965"
"239","Residential Electric Vehicle Supply Equipment Tax Credit Program","http://energy.maryland.gov/Transportation/evse/","",400,"","Hagerstown","MD",21742,"
Hagerstown, Maryland 21742
(39.65797255400048, -77.68676601899966)","","39.65797255400048"," -77.68676601899966"
"240","Electric Vehicle Charging Stations","http://www.afdc.energy.gov/locator/stations/","Sheehy Nissan",NA,"7232 Ritchie Hwy","Glen Burnie","MD",21061,"7232 Ritchie Hwy
Glen Burnie, Maryland 21061
(39.172867614000495, -76.61898938299964)","Public","39.172867614000495"," -76.61898938299964"
"241","Electric Vehicle Charging Stations","http://www.afdc.energy.gov/locator/stations/","MedImmune Ventures - Visitor's Parking Lot",NA,"200 Orchard Ridge Dr","Gaithersburg","MD",20878,"200 Orchard Ridge Dr
Gaithersburg, Maryland 20878
(39.12744865100046, -77.23303175199965)","Public","39.12744865100046"," -77.23303175199965"
"242","E-85 Refueling Stations","http://energy.maryland.gov/Transportation/e85Refueling.html","Citgo",NA,"2042 West St","Annapolis","MD",21401,"2042 West St
Annapolis, Maryland 21401
(38.98366766200047, -76.53845663999965)","Public","38.98366766200047"," -76.53845663999965"
"243","Electric Vehicle Infrastructure Program (EVIP)","http://energy.maryland.gov/Transportation/electric.html","Baltimore Washington International Airport (BWI) - Hourly Parking Garage",25592.6,"7062 Elm Rd","Baltimore","MD",21240,"7062 Elm Rd
Baltimore, Maryland 21240
(39.18851128500046, -76.67579522499966)","Public","39.18851128500046"," -76.67579522499966"
"244","Electric Vehicle Infrastructure Program (EVIP)","http://energy.maryland.gov/Transportation/electric.html","Mariner Arena Garage",14929.56,"200 W Lombard St","Baltimore","MD",21201,"200 W Lombard St
Baltimore, Maryland 21201
(39.28767580600049, -76.61778610099964)","Public","39.28767580600049"," -76.61778610099964"
"245","Electric Vehicle Charging Stations","http://www.afdc.energy.gov/locator/stations/","Antwerpen Nissan - Security",NA,"1701 Woodlawn Dr","Baltimore","MD",21207,"1701 Woodlawn Dr
Baltimore, Maryland 21207
(39.31272861600047, -76.73500466899964)","Public","39.31272861600047"," -76.73500466899964"
"246","Electric Vehicle Charging Stations","http://www.afdc.energy.gov/locator/stations/","CMT Advisory Service",NA,"576-626 Pleasant Hill Rd","Owings Mills","MD",21117,"576-626 Pleasant Hill Rd
Owings Mills, Maryland 21117
(39.41086185600045, -76.81197812599964)","Public","39.41086185600045"," -76.81197812599964"
"247","Electric Vehicle Charging Stations","http://www.afdc.energy.gov/locator/stations/","Qiagen Sciences",NA,"19300 Germantown Rd","Germantown","MD",20874,"19300 Germantown Rd
Germantown, Maryland 20874
(39.17200299500047, -77.27688980899967)","Public","39.17200299500047"," -77.27688980899967"
"248","Electric Vehicle Infrastructure Program (EVIP)","http://energy.maryland.gov/Transportation/electric.html","Saint John's Maple Lawn",12796.3,"8160 Maple Lawn Blvd","Fulton","MD",20759,"8160 Maple Lawn Blvd
Fulton, Maryland 20759
(39.14914507500049, -76.90509772599967)","Public","39.14914507500049"," -76.90509772599967"
"249","Electric Vehicle Charging Stations","http://www.afdc.energy.gov/locator/stations/","Maryland Institute College of Art - Bunting Building",NA,"1401 W Mt Royal Ave","Baltimore","MD",21217,"1401 W Mt Royal Ave
Baltimore, Maryland 21217
(39.3089432430005, -76.62225124799966)","Public","39.3089432430005"," -76.62225124799966"
"250","Electric Vehicle Charging Stations","http://www.afdc.energy.gov/locator/stations/","Walgreens",NA,"1300 E North Ave","Baltimore","MD",21213,"1300 E North Ave
Baltimore, Maryland 21213
(39.311918480000486, -76.60006133399963)","Public","39.311918480000486"," -76.60006133399963"
"251","Electric Vehicle Infrastructure Program (EVIP)","http://energy.maryland.gov/Transportation/electric.html","Office building",6398.15,"8201 16th Street","Silver Spring","MD",20910,"8201 16th Street
Silver Spring, Maryland 20910
(38.99221662400049, -77.03609478199968)","Public","38.99221662400049"," -77.03609478199968"
"252","Electric Vehicle Charging Stations","http://www.afdc.energy.gov/locator/stations/","University of Maryland - Pratt Garage",NA,"646 W Pratt St","Baltimore","MD",21201,"646 W Pratt St
Baltimore, Maryland 21201
(39.28617770800048, -76.62495170199963)","Public","39.28617770800048"," -76.62495170199963"
"253","Electric Vehicle Supply Equipment Tax Credit Program","http://energy.maryland.gov/Transportation/evse/index.html","Four Irvington Centre Associates",400,"805 King Farm Blvd","Rockville","MD",20850,"805 King Farm Blvd
Rockville, Maryland 20850
(39.111491827000464, -77.17899242699963)","Public","39.111491827000464"," -77.17899242699963"
"254","Electric Vehicle Charging Stations","http://www.afdc.energy.gov/locator/stations/","Maryland Transit Authority - Mount Washington",NA,"5701 Smith Ave","Baltimore","MD",21209,"5701 Smith Ave
Baltimore, Maryland 21209
(39.36789841400048, -76.65243000299967)","Public","39.36789841400048"," -76.65243000299967"
"255","Electric Vehicle Charging Stations","http://www.afdc.energy.gov/locator/stations/","University of Maryland - Lexington Garage",NA,"600 W Lexington St","Baltimore","MD",21201,"600 W Lexington St
Baltimore, Maryland 21201
(39.29167810500047, -76.62395205999968)","Public","39.29167810500047"," -76.62395205999968"
"256","Electric Vehicle Charging Stations","http://www.afdc.energy.gov/locator/stations/","Bob Bell Nissan",NA,"7900 Eastern Ave","Baltimore","MD",21224,"7900 Eastern Ave
Baltimore, Maryland 21224
(39.29592776700048, -76.50846738999968)","Public","39.29592776700048"," -76.50846738999968"
"257","Electric Vehicle Charging Stations","http://www.afdc.energy.gov/locator/stations/","Montgomery Park",NA,"1800 Washington Blvd","Baltimore","MD",21230,"1800 Washington Blvd
Baltimore, Maryland 21230
(39.27521362800047, -76.64236962799964)","Public","39.27521362800047"," -76.64236962799964"
"258","Electric Vehicle Charging Stations","http://www.afdc.energy.gov/locator/stations/","Walgreens",NA,"12400 Auto Dr","Clarksville","MD",21029,"12400 Auto Dr
Clarksville, Maryland 21029
(39.20932610900047, -76.94069633999965)","Public","39.20932610900047"," -76.94069633999965"
"259","Electric Vehicle Charging Stations","http://www.afdc.energy.gov/locator/stations/","University of Maryland - Shady Grove",NA,"9630 Gudelsky Dr","Rockville","MD",20850,"9630 Gudelsky Dr
Rockville, Maryland 20850
(39.09254287400046, -77.19793140899964)","Public","39.09254287400046"," -77.19793140899964"
"260","Electric Vehicle Charging Stations","http://www.afdc.energy.gov/locator/stations/","Bethesda Row",NA,"7115 Arlington Rd","Bethesda","MD",20814,"7115 Arlington Rd
Bethesda, Maryland 20814
(38.981069540000476, -77.09838743899968)","Public","38.981069540000476"," -77.09838743899968"
"261","Electric Vehicle Infrastructure Program (EVIP)","http://energy.maryland.gov/Transportation/electric.html","Penn Station Garage",14929.56,"1511 N Charles St","Baltimore","MD",21201,"1511 N Charles St
Baltimore, Maryland 21201
(39.30733820400047, -76.61628526999965)","Public","39.30733820400047"," -76.61628526999965"
"262","Residential Electric Vehicle Supply Equipment Tax Credit Program","http://energy.maryland.gov/Transportation/evse/","",228,"","Crofton","MD",21114,"
Crofton, Maryland 21114
(39.01093171500048, -76.68531611699967)","","39.01093171500048"," -76.68531611699967"
"263","Residential Electric Vehicle Supply Equipment Tax Credit Program","http://energy.maryland.gov/Transportation/evse/","",109.8,"","North Potomac","MD",20878,"
North Potomac, Maryland 20878
(39.11832287100049, -77.23415983199965)","","39.11832287100049"," -77.23415983199965"
"264","Electric Vehicle Charging Stations","http://www.afdc.energy.gov/locator/stations/","Walgreens",NA,"6301 York Rd","Baltimore","MD",21212,"6301 York Rd
Baltimore, Maryland 21212
(39.37139005400047, -76.60978533699966)","Public","39.37139005400047"," -76.60978533699966"
"265","Electric Vehicle Charging Stations","http://www.afdc.energy.gov/locator/stations/","Crain Memorial Welcome Center - Charles County",NA,"12480 Crain Hwy","Newburg","MD",20664,"12480 Crain Hwy
Newburg, Maryland 20664
(38.369378381000445, -76.96143061299966)","Public","38.369378381000445"," -76.96143061299966"
"266","Electric Vehicle Charging Stations","http://www.afdc.energy.gov/locator/stations/","Safeway",NA,"444 WMC Dr","Westminister","MD",21158,"444 WMC Dr
Westminister, Maryland 21158
(39.58621493200047, -77.01134128699965)","Public","39.58621493200047"," -77.01134128699965"
"267","Electric Vehicle Charging Stations","http://www.afdc.energy.gov/locator/stations/","Kohl's",NA,"12024 Cherry Hill Rd","Silver Spring","MD",20904,"12024 Cherry Hill Rd
Silver Spring, Maryland 20904
(39.053290638000476, -76.95337730299963)","Public","39.053290638000476"," -76.95337730299963"
"268","Electric Vehicle Charging Stations","http://www.afdc.energy.gov/locator/stations/","Nationwide Motor Sales Corp",NA,"2085 York Rd","Timonium","MD",21093,"2085 York Rd
Timonium, Maryland 21093
(39.43994486300045, -76.62592054799967)","Public","39.43994486300045"," -76.62592054799967"
"269","Electric Vehicle Charging Stations","http://www.afdc.energy.gov/locator/stations/","Shirlen Building",NA,"8725 Loch Raven Blvd","Towson","MD",21286,"8725 Loch Raven Blvd
Towson, Maryland 21286
(39.39870846000048, -76.56387406899967)","Public","39.39870846000048"," -76.56387406899967"
"270","Residential Electric Vehicle Supply Equipment Tax Credit Program","http://energy.maryland.gov/Transportation/evse/","",144.22,"","Pikesville","MD",21208,"
Pikesville, Maryland 21208
(39.37661172300045, -76.72958737799968)","","39.37661172300045"," -76.72958737799968"
"271","Electric Vehicle Charging Stations","http://www.afdc.energy.gov/locator/stations/","Joint Apprenticeship and Training Committee - IBEW Local Union 26",NA,"4371 Parliament Pl","Lanham-Seabrook","MD",20706,"4371 Parliament Pl
Lanham-Seabrook, Maryland 20706
(38.950170191000495, -76.83658792399967)","Public","38.950170191000495"," -76.83658792399967"
"272","Electric Vehicle Charging Stations","http://www.afdc.energy.gov/locator/stations/","MOM's Organic Market - College Park",NA,"9827 Rhode Island Ave","College Park","MD",20740,"9827 Rhode Island Ave
College Park, Maryland 20740
(39.01377643000046, -76.92139116899966)","Public","39.01377643000046"," -76.92139116899966"
"273","Electric Vehicle Charging Stations","http://www.afdc.energy.gov/locator/stations/","FastPark",NA,"1718 W Nursery Rd","Linthicum Heights","MD",21090,"1718 W Nursery Rd
Linthicum Heights, Maryland 21090
(39.197897741000475, -76.68352785999963)","Public","39.197897741000475"," -76.68352785999963"
"274","Electric Vehicle Infrastructure Program (EVIP)","http://energy.maryland.gov/Transportation/electric.html","The Tower Companies - The Blairs Shopping Center",12796.3,"1220 East West Hwy","Silver Spring","MD",20910,"1220 East West Hwy
Silver Spring, Maryland 20910
(38.99170980200046, -77.03057288999963)","Public","38.99170980200046"," -77.03057288999963"
"275","Residential Electric Vehicle Supply Equipment Tax Credit Program","http://energy.maryland.gov/Transportation/evse/","",98,"","Olney","MD",20832,"
Olney, Maryland 20832
(39.15280049000046, -77.07121777999964)","","39.15280049000046"," -77.07121777999964"
"276","Electric Vehicle Charging Stations","http://www.afdc.energy.gov/locator/stations/","Under Armour",NA,"1040 Hull St","Baltimore","MD",21230,"1040 Hull St
Baltimore, Maryland 21230
(39.27479365100049, -76.59041922799963)","Public","39.27479365100049"," -76.59041922799963"
"277","Electric Vehicle Charging Stations","http://www.afdc.energy.gov/locator/stations/","Maryland Transit Administration - Odenton Marc",NA,"1392-1398 Odenton Rd","Odenton","MD",21113,"1392-1398 Odenton Rd
Odenton, Maryland 21113
(39.07829206500048, -76.68503751399965)","Public","39.07829206500048"," -76.68503751399965"
"278","Residential Electric Vehicle Supply Equipment Tax Credit Program","http://energy.maryland.gov/Transportation/evse/","",240,"","Edgewater","MD",21037,"
Edgewater, Maryland 21037
(38.918122397000445, -76.54171803099968)","","38.918122397000445"," -76.54171803099968"
"279","Residential Electric Vehicle Supply Equipment Tax Credit Program","http://energy.maryland.gov/Transportation/evse/","",240,"","Bethesda","MD",20817,"
Bethesda, Maryland 20817
(39.002724000000455, -77.13874785599967)","","39.002724000000455"," -77.13874785599967"
